[{"OBJECT_NAME":"ONEWEB-0560","OBJECT_ID":"2023-004F","EPOCH":"2026-03-09T19:52:45.069024","MEAN_MOTION":13.18685993,"ECCENTRICITY":0.0001943,"INCLINATION":87.9239,"RA_OF_ASC_NODE":355.1998,"ARG_OF_PERICENTER":83.3274,"MEAN_ANOMALY":276.8079,"EPHEMERIS_TYPE":0,"CLASSIFICATION_TYPE":"U","NORAD_CAT_ID":55145,"ELEMENT_SET_NO":999,"REV_AT_EPOCH":15661,"BSTAR":1.8602187e-5,"MEAN_MOTION_DOT":2.0e-7,"MEAN_MOTION_DDOT":0},{"OBJECT_NAME":"DELTA 1 DEB","OBJECT_ID":"1975-052MB","EPOCH":"2026-02-27T13:18:27.386496","MEAN_MOTION":13.31447177,"ECCENTRICITY":0.00752986,"INCLINATION":99.8865,"RA_OF_ASC_NODE":160.4023,"ARG_OF_PERICENTER":274.6039,"MEAN_ANOMALY":84.6487,"EPHEMERIS_TYPE":0,"CLASSIFICATION_TYPE":"U","NORAD_CAT_ID":42642,"ELEMENT_SET_NO":999,"REV_AT_EPOCH":59647,"BSTAR":0.00028817895,"MEAN_MOTION_DOT":9.7e-7,"MEAN_MOTION_DDOT":0}]
